<?xml version="1.0" encoding="UTF-8"?>
<ndm xmlns:xsi="http://www.w3.org/2001/XMLSchema-instance" xsi:noNamespaceSchemaLocation="https://sanaregistry.org/r/ndmxml_unqualified/ndmxml-2.0.0-master-2.0.xsd">
<omm id="CCSDS_OMM_VERS" version="2.0">
<header><CREATION_DATE/><ORIGINATOR/></header><body><segment><metadata><OBJECT_NAME>GLOBALSTAR M075</OBJECT_NAME><OBJECT_ID>2010-054E</OBJECT_ID><CENTER_NAME>EARTH</CENTER_NAME><REF_FRAME>TEME</REF_FRAME><TIME_SYSTEM>UTC</TIME_SYSTEM><MEAN_ELEMENT_THEORY>SGP4</MEAN_ELEMENT_THEORY></metadata><data><meanElements><EPOCH>2025-05-31T22:55:25.324608</EPOCH><MEAN_MOTION>12.62265434</MEAN_MOTION><ECCENTRICITY>.0000417</ECCENTRICITY><INCLINATION>51.9939</INCLINATION><RA_OF_ASC_NODE>230.9602</RA_OF_ASC_NODE><ARG_OF_PERICENTER>131.1883</ARG_OF_PERICENTER><MEAN_ANOMALY>39.7935</MEAN_ANOMALY></meanElements><tleParameters><EPHEMERIS_TYPE>0</EPHEMERIS_TYPE><CLASSIFICATION_TYPE>U</CLASSIFICATION_TYPE><NORAD_CAT_ID>37192</NORAD_CAT_ID><ELEMENT_SET_NO>999</ELEMENT_SET_NO><REV_AT_EPOCH>67379</REV_AT_EPOCH><BSTAR>.14117E-3</BSTAR><MEAN_MOTION_DOT>-.78E-6</MEAN_MOTION_DOT><MEAN_MOTION_DDOT>0</MEAN_MOTION_DDOT></tleParameters></data></segment></body></omm>
<omm id="CCSDS_OMM_VERS" version="2.0">
<header><CREATION_DATE/><ORIGINATOR/></header><body><segment><metadata><OBJECT_NAME>GLOBALSTAR M073</OBJECT_NAME><OBJECT_ID>2010-054F</OBJECT_ID><CENTER_NAME>EARTH</CENTER_NAME><REF_FRAME>TEME</REF_FRAME><TIME_SYSTEM>UTC</TIME_SYSTEM><MEAN_ELEMENT_THEORY>SGP4</MEAN_ELEMENT_THEORY></metadata><data><meanElements><EPOCH>2025-05-31T17:13:34.522752</EPOCH><MEAN_MOTION>12.62271979</MEAN_MOTION><ECCENTRICITY>.0000205</ECCENTRICITY><INCLINATION>52.0032</INCLINATION><RA_OF_ASC_NODE>145.4886</RA_OF_ASC_NODE><ARG_OF_PERICENTER>341.1559</ARG_OF_PERICENTER><MEAN_ANOMALY>189.9972</MEAN_ANOMALY></meanElements><tleParameters><EPHEMERIS_TYPE>0</EPHEMERIS_TYPE><CLASSIFICATION_TYPE>U</CLASSIFICATION_TYPE><NORAD_CAT_ID>37193</NORAD_CAT_ID><ELEMENT_SET_NO>999</ELEMENT_SET_NO><REV_AT_EPOCH>67575</REV_AT_EPOCH><BSTAR>-.42152E-4</BSTAR><MEAN_MOTION_DOT>-.111E-5</MEAN_MOTION_DOT><MEAN_MOTION_DDOT>0</MEAN_MOTION_DDOT></tleParameters></data></segment></body></omm>
<omm id="CCSDS_OMM_VERS" version="2.0">
<header><CREATION_DATE/><ORIGINATOR/></header><body><segment><metadata><OBJECT_NAME>GLOBALSTAR M083</OBJECT_NAME><OBJECT_ID>2011-033A</OBJECT_ID><CENTER_NAME>EARTH</CENTER_NAME><REF_FRAME>TEME</REF_FRAME><TIME_SYSTEM>UTC</TIME_SYSTEM><MEAN_ELEMENT_THEORY>SGP4</MEAN_ELEMENT_THEORY></metadata><data><meanElements><EPOCH>2025-05-31T06:09:47.001600</EPOCH><MEAN_MOTION>12.62263510</MEAN_MOTION><ECCENTRICITY>.0000334</ECCENTRICITY><INCLINATION>51.9852</INCLINATION><RA_OF_ASC_NODE>95.6449</RA_OF_ASC_NODE><ARG_OF_PERICENTER>63.0516</ARG_OF_PERICENTER><MEAN_ANOMALY>112.1457</MEAN_ANOMALY></meanElements><tleParameters><EPHEMERIS_TYPE>0</EPHEMERIS_TYPE><CLASSIFICATION_TYPE>U</CLASSIFICATION_TYPE><NORAD_CAT_ID>37739</NORAD_CAT_ID><ELEMENT_SET_NO>999</ELEMENT_SET_NO><REV_AT_EPOCH>64471</REV_AT_EPOCH><BSTAR>-.12821E-4</BSTAR><MEAN_MOTION_DOT>-.106E-5</MEAN_MOTION_DOT><MEAN_MOTION_DDOT>0</MEAN_MOTION_DDOT></tleParameters></data></segment></body></omm>
<omm id="CCSDS_OMM_VERS" version="2.0">
<header><CREATION_DATE/><ORIGINATOR/></header><body><segment><metadata><OBJECT_NAME>GLOBALSTAR M088</OBJECT_NAME><OBJECT_ID>2011-033B</OBJECT_ID><CENTER_NAME>EARTH</CENTER_NAME><REF_FRAME>TEME</REF_FRAME><TIME_SYSTEM>UTC</TIME_SYSTEM><MEAN_ELEMENT_THEORY>SGP4</MEAN_ELEMENT_THEORY></metadata><data><meanElements><EPOCH>2025-05-31T22:26:09.470112</EPOCH><MEAN_MOTION>12.62265102</MEAN_MOTION><ECCENTRICITY>.0000917</ECCENTRICITY><INCLINATION>52.0067</INCLINATION><RA_OF_ASC_NODE>359.1102</RA_OF_ASC_NODE><ARG_OF_PERICENTER>92.8632</ARG_OF_PERICENTER><MEAN_ANOMALY>45.5411</MEAN_ANOMALY></meanElements><tleParameters><EPHEMERIS_TYPE>0</EPHEMERIS_TYPE><CLASSIFICATION_TYPE>U</CLASSIFICATION_TYPE><NORAD_CAT_ID>37740</NORAD_CAT_ID><ELEMENT_SET_NO>999</ELEMENT_SET_NO><REV_AT_EPOCH>64034</REV_AT_EPOCH><BSTAR>.56156E-4</BSTAR><MEAN_MOTION_DOT>-.94E-6</MEAN_MOTION_DOT><MEAN_MOTION_DDOT>0</MEAN_MOTION_DDOT></tleParameters></data></segment></body></omm>
<omm id="CCSDS_OMM_VERS" version="2.0">
<header><CREATION_DATE/><ORIGINATOR/></header><body><segment><metadata><OBJECT_NAME>GLOBALSTAR M091</OBJECT_NAME><OBJECT_ID>2011-033C</OBJECT_ID><CENTER_NAME>EARTH</CENTER_NAME><REF_FRAME>TEME</REF_FRAME><TIME_SYSTEM>UTC</TIME_SYSTEM><MEAN_ELEMENT_THEORY>SGP4</MEAN_ELEMENT_THEORY></metadata><data><meanElements><EPOCH>2025-05-31T18:17:27.456576</EPOCH><MEAN_MOTION>12.62268181</MEAN_MOTION><ECCENTRICITY>.0000921</ECCENTRICITY><INCLINATION>52.0009</INCLINATION><RA_OF_ASC_NODE>323.1383</RA_OF_ASC_NODE><ARG_OF_PERICENTER>119.4778</ARG_OF_PERICENTER><MEAN_ANOMALY>253.7612</MEAN_ANOMALY></meanElements><tleParameters><EPHEMERIS_TYPE>0</EPHEMERIS_TYPE><CLASSIFICATION_TYPE>U</CLASSIFICATION_TYPE><NORAD_CAT_ID>37741</NORAD_CAT_ID><ELEMENT_SET_NO>999</ELEMENT_SET_NO><REV_AT_EPOCH>64111</REV_AT_EPOCH><BSTAR>.6956E-4</BSTAR><MEAN_MOTION_DOT>-.91E-6</MEAN_MOTION_DOT><MEAN_MOTION_DDOT>0</MEAN_MOTION_DDOT></tleParameters></data></segment></body></omm>
<omm id="CCSDS_OMM_VERS" version="2.0">
<header><CREATION_DATE/><ORIGINATOR/></header><body><segment><metadata><OBJECT_NAME>GLOBALSTAR M085</OBJECT_NAME><OBJECT_ID>2011-033D</OBJECT_ID><CENTER_NAME>EARTH</CENTER_NAME><REF_FRAME>TEME</REF_FRAME><TIME_SYSTEM>UTC</TIME_SYSTEM><MEAN_ELEMENT_THEORY>SGP4</MEAN_ELEMENT_THEORY></metadata><data><meanElements><EPOCH>2025-05-31T14:10:09.389280</EPOCH><MEAN_MOTION>12.62268784</MEAN_MOTION><ECCENTRICITY>.0000774</ECCENTRICITY><INCLINATION>51.9873</INCLINATION><RA_OF_ASC_NODE>274.7136</RA_OF_ASC_NODE><ARG_OF_PERICENTER>138.6622</ARG_OF_PERICENTER><MEAN_ANOMALY>234.1917</MEAN_ANOMALY></meanElements><tleParameters><EPHEMERIS_TYPE>0</EPHEMERIS_TYPE><CLASSIFICATION_TYPE>U</CLASSIFICATION_TYPE><NORAD_CAT_ID>37742</NORAD_CAT_ID><ELEMENT_SET_NO>999</ELEMENT_SET_NO><REV_AT_EPOCH>64209</REV_AT_EPOCH><BSTAR>.1732E-3</BSTAR><MEAN_MOTION_DOT>-.73E-6</MEAN_MOTION_DOT><MEAN_MOTION_DDOT>0</MEAN_MOTION_DDOT></tleParameters></data></segment></body></omm>
<omm id="CCSDS_OMM_VERS" version="2.0">
<header><CREATION_DATE/><ORIGINATOR/></header><body><segment><metadata><OBJECT_NAME>GLOBALSTAR M081</OBJECT_NAME><OBJECT_ID>2011-033E</OBJECT_ID><CENTER_NAME>EARTH</CENTER_NAME><REF_FRAME>TEME</REF_FRAME><TIME_SYSTEM>UTC</TIME_SYSTEM><MEAN_ELEMENT_THEORY>SGP4</MEAN_ELEMENT_THEORY></metadata><data><meanElements><EPOCH>2025-05-31T14:48:44.711424</EPOCH><MEAN_MOTION>12.62264252</MEAN_MOTION><ECCENTRICITY>.000059</ECCENTRICITY><INCLINATION>51.9965</INCLINATION><RA_OF_ASC_NODE>277.4104</RA_OF_ASC_NODE><ARG_OF_PERICENTER>140.4748</ARG_OF_PERICENTER><MEAN_ANOMALY>233.1547</MEAN_ANOMALY></meanElements><tleParameters><EPHEMERIS_TYPE>0</EPHEMERIS_TYPE><CLASSIFICATION_TYPE>U</CLASSIFICATION_TYPE><NORAD_CAT_ID>37743</NORAD_CAT_ID><ELEMENT_SET_NO>999</ELEMENT_SET_NO><REV_AT_EPOCH>64175</REV_AT_EPOCH><BSTAR>.13406E-3</BSTAR><MEAN_MOTION_DOT>-.8E-6</MEAN_MOTION_DOT><MEAN_MOTION_DDOT>0</MEAN_MOTION_DDOT></tleParameters></data></segment></body></omm>
<omm id="CCSDS_OMM_VERS" version="2.0">
<header><CREATION_DATE/><ORIGINATOR/></header><body><segment><metadata><OBJECT_NAME>GLOBALSTAR M089</OBJECT_NAME><OBJECT_ID>2011-033F</OBJECT_ID><CENTER_NAME>EARTH</CENTER_NAME><REF_FRAME>TEME</REF_FRAME><TIME_SYSTEM>UTC</TIME_SYSTEM><MEAN_ELEMENT_THEORY>SGP4</MEAN_ELEMENT_THEORY></metadata><data><meanElements><EPOCH>2025-05-31T11:57:02.816928</EPOCH><MEAN_MOTION>12.62264331</MEAN_MOTION><ECCENTRICITY>.0000286</ECCENTRICITY><INCLINATION>51.9923</INCLINATION><RA_OF_ASC_NODE>232.0030</RA_OF_ASC_NODE><ARG_OF_PERICENTER>99.9560</ARG_OF_PERICENTER><MEAN_ANOMALY>273.0082</MEAN_ANOMALY></meanElements><tleParameters><EPHEMERIS_TYPE>0</EPHEMERIS_TYPE><CLASSIFICATION_TYPE>U</CLASSIFICATION_TYPE><NORAD_CAT_ID>37744</NORAD_CAT_ID><ELEMENT_SET_NO>999</ELEMENT_SET_NO><REV_AT_EPOCH>64258</REV_AT_EPOCH><BSTAR>.16574E-3</BSTAR><MEAN_MOTION_DOT>-.74E-6</MEAN_MOTION_DOT><MEAN_MOTION_DDOT>0</MEAN_MOTION_DDOT></tleParameters></data></segment></body></omm>

</ndm>
