GLOBALSTAR M075         
1 37192U 10054E   25151.95515422 -.00000078  00000+0  14117-3 0  9991
2 37192  51.9939 230.9602 0000417 131.1883  39.7935 12.62265434673792
GLOBALSTAR M073         
1 37193U 10054F   25151.71776068 -.00000111  00000+0 -42152-4 0  9991
2 37193  52.0032 145.4886 0000205 341.1559 189.9972 12.62271979675759
GLOBALSTAR M083         
1 37739U 11033A   25151.25679400 -.00000106  00000+0 -12821-4 0  9990
2 37739  51.9852  95.6449 0000334  63.0516 112.1457 12.62263510644710
GLOBALSTAR M088         
1 37740U 11033B   25151.93483183 -.00000094  00000+0  56156-4 0  9992
2 37740  52.0067 359.1102 0000917  92.8632  45.5411 12.62265102640345
GLOBALSTAR M091         
1 37741U 11033C   25151.76212334 -.00000091  00000+0  69560-4 0  9992
2 37741  52.0009 323.1383 0000921 119.4778 253.7612 12.62268181641118
GLOBALSTAR M085         
1 37742U 11033D   25151.59038645 -.00000073  00000+0  17320-3 0  9991
2 37742  51.9873 274.7136 0000774 138.6622 234.1917 12.62268784642098
GLOBALSTAR M081         
1 37743U 11033E   25151.61718416 -.00000080  00000+0  13406-3 0  9995
2 37743  51.9965 277.4104 0000590 140.4748 233.1547 12.62264252641758
GLOBALSTAR M089         
1 37744U 11033F   25151.49794927 -.00000074  00000+0  16574-3 0  9995
2 37744  51.9923 232.0030 0000286  99.9560 273.0082 12.62264331642587
